{
  "type": "FeatureCollection",
  "features": [
    {
      "type": "Feature",
      "properties": {
        "norad_id": 34350,
        "name": "IRIDIUM 33 DEB",
        "group": "iridium-33-debris",
        "lat": -66.20257304611006,
        "lon": -164.71998264995221,
        "alt_km": 745.8525522838227,
        "timestamp": "2025-12-03T06:58:43.626609+00:00",
        "meta_object_name": "IRIDIUM 33 DEB",
        "meta_object_id": "1997-051ES",
        "meta_epoch": "2025-12-02T20:40:44.824224",
        "meta_mean_motion": 14.45350239,
        "meta_eccentricity": 0.0021812,
        "meta_inclination": 86.3282,
        "meta_ra_of_asc_node": 7.0934,
        "meta_arg_of_pericenter": 166.4146,
        "meta_mean_anomaly": 8.1872,
        "meta_ephemeris_type": 0,
        "meta_classification_type": "U",
        "meta_norad_cat_id": 34350,
        "meta_element_set_no": 999,
        "meta_rev_at_epoch": 88150,
        "meta_bstar": 0.00040994,
        "meta_mean_motion_dot": 1.464e-05,
        "meta_mean_motion_ddot": 0,
        "tle_line1": "1 34350U 97051ES  25336.86162991  .00001464  00000+0  40994-3 0  9991",
        "tle_line2": "2 34350  86.3282   7.0934 0021812 166.4146   8.1872 14.45350239881505"
      },
      "geometry": {
        "type": "Point",
        "coordinates": [
          -164.71998264995221,
          -66.20257304611006
        ]
      }
    },
    {
      "type": "Feature",
      "properties": {
        "norad_id": 34366,
        "name": "IRIDIUM 33 DEB",
        "group": "iridium-33-debris",
        "lat": -77.90184824326208,
        "lon": 36.19884106437278,
        "alt_km": 725.9601730200538,
        "timestamp": "2025-12-03T06:58:43.626619+00:00",
        "meta_object_name": "IRIDIUM 33 DEB",
        "meta_object_id": "1997-051FJ",
        "meta_epoch": "2025-12-02T17:03:14.468832",
        "meta_mean_motion": 14.53901714,
        "meta_eccentricity": 0.0021668,
        "meta_inclination": 86.3709,
        "meta_ra_of_asc_node": 53.6739,
        "meta_arg_of_pericenter": 171.9612,
        "meta_mean_anomaly": 314.5418,
        "meta_ephemeris_type": 0,
        "meta_classification_type": "U",
        "meta_norad_cat_id": 34366,
        "meta_element_set_no": 999,
        "meta_rev_at_epoch": 88036,
        "meta_bstar": 0.0016349,
        "meta_mean_motion_dot": 6.918e-05,
        "meta_mean_motion_ddot": 0,
        "tle_line1": "1 34366U 97051FJ  25336.71058413  .00006918  00000+0  16349-2 0  9990",
        "tle_line2": "2 34366  86.3709  53.6739 0021668 171.9612 314.5418 14.53901714880366"
      },
      "geometry": {
        "type": "Point",
        "coordinates": [
          36.19884106437278,
          -77.90184824326208
        ]
      }
    },
    {
      "type": "Feature",
      "properties": {
        "norad_id": 34375,
        "name": "IRIDIUM 33 DEB",
        "group": "iridium-33-debris",
        "lat": -20.451145949620155,
        "lon": -174.82824641741772,
        "alt_km": 911.2628934998875,
        "timestamp": "2025-12-03T06:58:43.626629+00:00",
        "meta_object_name": "IRIDIUM 33 DEB",
        "meta_object_id": "1997-051FT",
        "meta_epoch": "2025-12-02T14:23:53.579616",
        "meta_mean_motion": 14.17963655,
        "meta_eccentricity": 0.01024204,
        "meta_inclination": 86.4333,
        "meta_ra_of_asc_node": 186.7829,
        "meta_arg_of_pericenter": 158.6617,
        "meta_mean_anomaly": 256.6235,
        "meta_ephemeris_type": 0,
        "meta_classification_type": "U",
        "meta_norad_cat_id": 34375,
        "meta_element_set_no": 999,
        "meta_rev_at_epoch": 86568,
        "meta_bstar": 0.00051834177,
        "meta_mean_motion_dot": 1.136e-05,
        "meta_mean_motion_ddot": 0,
        "tle_line1": "1 34375U 97051FT  25336.59992569  .00001136  00000+0  51834-3 0  9991",
        "tle_line2": "2 34375  86.4333 186.7829 0102420 158.6617 256.6235 14.17963655865684"
      },
      "geometry": {
        "type": "Point",
        "coordinates": [
          -174.82824641741772,
          -20.451145949620155
        ]
      }
    },
    {
      "type": "Feature",
      "properties": {
        "norad_id": 34376,
        "name": "IRIDIUM 33 DEB",
        "group": "iridium-33-debris",
        "lat": -78.07553220782225,
        "lon": -7.057611555644542,
        "alt_km": 690.5314877275441,
        "timestamp": "2025-12-03T06:58:43.626640+00:00",
        "meta_object_name": "IRIDIUM 33 DEB",
        "meta_object_id": "1997-051FU",
        "meta_epoch": "2025-12-02T19:50:34.864224",
        "meta_mean_motion": 14.62334543,
        "meta_eccentricity": 0.0026034,
        "meta_inclination": 86.2997,
        "meta_ra_of_asc_node": 10.996,
        "meta_arg_of_pericenter": 200.669,
        "meta_mean_anomaly": 159.347,
        "meta_ephemeris_type": 0,
        "meta_classification_type": "U",
        "meta_norad_cat_id": 34376,
        "meta_element_set_no": 999,
        "meta_rev_at_epoch": 87862,
        "meta_bstar": 0.0019442,
        "meta_mean_motion_dot": 9.891e-05,
        "meta_mean_motion_ddot": 0,
        "tle_line1": "1 34376U 97051FU  25336.82679241  .00009891  00000+0  19442-2 0  9991",
        "tle_line2": "2 34376  86.2997  10.9960 0026034 200.6690 159.3470 14.62334543878624"
      },
      "geometry": {
        "type": "Point",
        "coordinates": [
          -7.057611555644542,
          -78.07553220782225
        ]
      }
    },
    {
      "type": "Feature",
      "properties": {
        "norad_id": 34486,
        "name": "IRIDIUM 33 DEB",
        "group": "iridium-33-debris",
        "lat": 82.47119302875261,
        "lon": 167.89308867643206,
        "alt_km": 568.5915116331544,
        "timestamp": "2025-12-03T06:58:43.626650+00:00",
        "meta_object_name": "IRIDIUM 33 DEB",
        "meta_object_id": "1997-051GB",
        "meta_epoch": "2025-12-02T15:02:23.385120",
        "meta_mean_motion": 14.95059265,
        "meta_eccentricity": 0.00127797,
        "meta_inclination": 86.395,
        "meta_ra_of_asc_node": 16.6902,
        "meta_arg_of_pericenter": 145.8353,
        "meta_mean_anomaly": 338.7593,
        "meta_ephemeris_type": 0,
        "meta_classification_type": "U",
        "meta_norad_cat_id": 34486,
        "meta_element_set_no": 999,
        "meta_rev_at_epoch": 88835,
        "meta_bstar": 0.002717162,
        "meta_mean_motion_dot": 0.00029907,
        "meta_mean_motion_ddot": 0,
        "tle_line1": "1 34486U 97051GB  25336.62665955  .00029907  00000+0  27172-2 0  9997",
        "tle_line2": "2 34486  86.3950  16.6902 0012779 145.8353 338.7593 14.95059265888353"
      },
      "geometry": {
        "type": "Point",
        "coordinates": [
          167.89308867643206,
          82.47119302875261
        ]
      }
    },
    {
      "type": "Feature",
      "properties": {
        "norad_id": 34487,
        "name": "IRIDIUM 33 DEB",
        "group": "iridium-33-debris",
        "lat": 85.07870364753812,
        "lon": 64.38634232361454,
        "alt_km": 733.286987197137,
        "timestamp": "2025-12-03T06:58:43.626660+00:00",
        "meta_object_name": "IRIDIUM 33 DEB",
        "meta_object_id": "1997-051GC",
        "meta_epoch": "2025-12-01T15:14:00.920832",
        "meta_mean_motion": 14.43192153,
        "meta_eccentricity": 0.00317068,
        "meta_inclination": 86.3445,
        "meta_ra_of_asc_node": 17.1579,
        "meta_arg_of_pericenter": 163.7221,
        "meta_mean_anomaly": 324.8136,
        "meta_ephemeris_type": 0,
        "meta_classification_type": "U",
        "meta_norad_cat_id": 34487,
        "meta_element_set_no": 999,
        "meta_rev_at_epoch": 88088,
        "meta_bstar": 0.0002149908,
        "meta_mean_motion_dot": 7.47e-06,
        "meta_mean_motion_ddot": 0,
        "tle_line1": "1 34487U 97051GC  25335.63473288  .00000747  00000+0  21499-3 0  9992",
        "tle_line2": "2 34487  86.3445  17.1579 0031706 163.7221 324.8136 14.43192153880889"
      },
      "geometry": {
        "type": "Point",
        "coordinates": [
          64.38634232361454,
          85.07870364753812
        ]
      }
    },
    {
      "type": "Feature",
      "properties": {
        "norad_id": 34488,
        "name": "IRIDIUM 33 DEB",
        "group": "iridium-33-debris",
        "lat": 64.0060156769341,
        "lon": -41.942771258071026,
        "alt_km": 470.8893797721594,
        "timestamp": "2025-12-03T06:58:43.626671+00:00",
        "meta_object_name": "IRIDIUM 33 DEB",
        "meta_object_id": "1997-051GD",
        "meta_epoch": "2025-12-02T10:14:15.692928",
        "meta_mean_motion": 15.25775894,
        "meta_eccentricity": 0.00157603,
        "meta_inclination": 86.3247,
        "meta_ra_of_asc_node": 310.9077,
        "meta_arg_of_pericenter": 67.3176,
        "meta_mean_anomaly": 292.9735,
        "meta_ephemeris_type": 0,
        "meta_classification_type": "U",
        "meta_norad_cat_id": 34488,
        "meta_element_set_no": 999,
        "meta_rev_at_epoch": 89082,
        "meta_bstar": 0.0046883947,
        "meta_mean_motion_dot": 0.00121875,
        "meta_mean_motion_ddot": 0,
        "tle_line1": "1 34488U 97051GD  25336.42657052  .00121875  00000+0  46884-2 0  9994",
        "tle_line2": "2 34488  86.3247 310.9077 0015760  67.3176 292.9735 15.25775894890822"
      },
      "geometry": {
        "type": "Point",
        "coordinates": [
          -41.942771258071026,
          64.0060156769341
        ]
      }
    }
  ]
}